ICEYE-X21               
1 55049U 23001AS  26166.16465007  .00399900  80533-4  45449-3 0  9991
2 55049  97.3042 252.5312 0003471 242.3928 117.7003 16.09193683193294
ICEYE-X25               
1 56963U 23084AH  26166.19837859  .00039816  00000+0  48804-3 0  9990
2 56963  97.5882 312.3060 0002619 289.2076  70.8897 15.60248881167665
ICEYE-X31               
1 58288U 23174AJ  26166.18010694  .00015858  00000+0  48024-3 0  9995
2 58288  97.3789 241.9210 0001299 359.9300   0.1942 15.34248522144444
ICEYE-X34               
1 58294U 23174AQ  26166.19203286  .00058454  00000+0  59970-3 0  9995
2 58294  97.3891 257.2934 0004709 183.2473 176.8757 15.64755623145439
ICEYE-X35               
1 58302U 23174AY  26166.17816692  .00044088  00000+0  72285-3 0  9996
2 58302  97.3805 250.6943 0009440 199.1923 160.8975 15.52285070145036
ICEYE-X38               
1 59100U 24043C   26166.19939381  .00004628  00000+0  26725-3 0  9996
2 59100  97.8402 309.8911 0003975  93.9427 266.2258 15.12841389111372
ICEYE-X37               
1 59102U 24043E   26166.12111169  .00003787  00000+0  26289-3 0  9997
2 59102  97.8312 303.0886 0015475  21.5075 338.6798 15.06108335124776
ICEYE-X36               
1 59103U 24043F   26166.19217314  .00003731  00000+0  25451-3 0  9993
2 59103  97.8369 304.2277 0005180 338.6410  21.4600 15.06852747124843
ICEYE-X39               
1 60546U 24149CG  26166.14228403  .00003135  00000+0  25758-3 0  9997
2 60546  97.6766 243.1935 0005046 124.0450 236.1253 14.99885943 99811
ICEYE-X33               
1 60548U 24149CJ  26166.16906378  .00004053  00000+0  32305-3 0  9991
2 60548  97.7287 245.3249 0002420  73.0521 287.0968 15.00901628 99909
