{
 "generated_at": "2026-06-15T10:55:27Z",
 "sources": [
  {
   "name": "CelesTrak",
   "url": "https://celestrak.org/NORAD/elements/",
   "license": "frei verfügbar; Attribution. Ursprünglich USSPACECOM/Space-Track."
  },
  {
   "name": "GCAT (J. McDowell, planet4589.org)",
   "url": "https://planet4589.org/space/gcat/",
   "license": "CC-BY 4.0"
  }
 ],
 "satellites": [
  {
   "norad": 55049,
   "name": "ICEYE-X21",
   "intl": "2023-001AS",
   "group": "sar",
   "gcat": {
    "class": "B",
    "category": "IMG-R",
    "owner": "ICEYE",
    "state": "FI"
   },
   "omm": {
    "OBJECT_NAME": "ICEYE-X21",
    "OBJECT_ID": "2023-001AS",
    "EPOCH": "2026-06-15T03:57:05.766048",
    "MEAN_MOTION": 16.09193683,
    "ECCENTRICITY": 0.0003471,
    "INCLINATION": 97.3042,
    "RA_OF_ASC_NODE": 252.5312,
    "ARG_OF_PERICENTER": 242.3928,
    "MEAN_ANOMALY": 117.7003,
    "EPHEMERIS_TYPE": 0,
    "CLASSIFICATION_TYPE": "U",
    "NORAD_CAT_ID": 55049,
    "ELEMENT_SET_NO": 999,
    "REV_AT_EPOCH": 19329,
    "BSTAR": 0.00045449,
    "MEAN_MOTION_DOT": 0.003999,
    "MEAN_MOTION_DDOT": 0.000080533
   }
  },
  {
   "norad": 56963,
   "name": "ICEYE-X25",
   "intl": "2023-084AH",
   "group": "sar",
   "gcat": {
    "class": "B",
    "category": "IMG-R",
    "owner": "ICEYE",
    "state": "FI"
   },
   "omm": {
    "OBJECT_NAME": "ICEYE-X25",
    "OBJECT_ID": "2023-084AH",
    "EPOCH": "2026-06-15T04:45:39.910176",
    "MEAN_MOTION": 15.60248881,
    "ECCENTRICITY": 0.0002619,
    "INCLINATION": 97.5882,
    "RA_OF_ASC_NODE": 312.306,
    "ARG_OF_PERICENTER": 289.2076,
    "MEAN_ANOMALY": 70.8897,
    "EPHEMERIS_TYPE": 0,
    "CLASSIFICATION_TYPE": "U",
    "NORAD_CAT_ID": 56963,
    "ELEMENT_SET_NO": 999,
    "REV_AT_EPOCH": 16766,
    "BSTAR": 0.00048804,
    "MEAN_MOTION_DOT": 0.00039816,
    "MEAN_MOTION_DDOT": 0
   }
  },
  {
   "norad": 58288,
   "name": "ICEYE-X31",
   "intl": "2023-174AJ",
   "group": "sar",
   "gcat": {
    "class": "B",
    "category": "IMG-R",
    "owner": "ICEYE",
    "state": "FI"
   },
   "omm": {
    "OBJECT_NAME": "ICEYE-X31",
    "OBJECT_ID": "2023-174AJ",
    "EPOCH": "2026-06-15T04:19:21.239616",
    "MEAN_MOTION": 15.34248522,
    "ECCENTRICITY": 0.0001299,
    "INCLINATION": 97.3789,
    "RA_OF_ASC_NODE": 241.921,
    "ARG_OF_PERICENTER": 359.93,
    "MEAN_ANOMALY": 0.1942,
    "EPHEMERIS_TYPE": 0,
    "CLASSIFICATION_TYPE": "U",
    "NORAD_CAT_ID": 58288,
    "ELEMENT_SET_NO": 999,
    "REV_AT_EPOCH": 14444,
    "BSTAR": 0.00048024,
    "MEAN_MOTION_DOT": 0.00015858,
    "MEAN_MOTION_DDOT": 0
   }
  },
  {
   "norad": 60548,
   "name": "ICEYE-X33",
   "intl": "2024-149CJ",
   "group": "sar",
   "gcat": {
    "class": "B",
    "category": "IMG-R",
    "owner": "ICEUS/ICEYE",
    "state": "US"
   },
   "omm": {
    "OBJECT_NAME": "ICEYE-X33",
    "OBJECT_ID": "2024-149CJ",
    "EPOCH": "2026-06-15T04:03:27.110592",
    "MEAN_MOTION": 15.00901628,
    "ECCENTRICITY": 0.000242,
    "INCLINATION": 97.7287,
    "RA_OF_ASC_NODE": 245.3249,
    "ARG_OF_PERICENTER": 73.0521,
    "MEAN_ANOMALY": 287.0968,
    "EPHEMERIS_TYPE": 0,
    "CLASSIFICATION_TYPE": "U",
    "NORAD_CAT_ID": 60548,
    "ELEMENT_SET_NO": 999,
    "REV_AT_EPOCH": 9990,
    "BSTAR": 0.00032305,
    "MEAN_MOTION_DOT": 0.00004053,
    "MEAN_MOTION_DDOT": 0
   }
  },
  {
   "norad": 58294,
   "name": "ICEYE-X34",
   "intl": "2023-174AQ",
   "group": "sar",
   "gcat": {
    "class": "B",
    "category": "IMG-R",
    "owner": "ICEUS",
    "state": "US"
   },
   "omm": {
    "OBJECT_NAME": "ICEYE-X34",
    "OBJECT_ID": "2023-174AQ",
    "EPOCH": "2026-06-15T04:36:31.639104",
    "MEAN_MOTION": 15.64755623,
    "ECCENTRICITY": 0.0004709,
    "INCLINATION": 97.3891,
    "RA_OF_ASC_NODE": 257.2934,
    "ARG_OF_PERICENTER": 183.2473,
    "MEAN_ANOMALY": 176.8757,
    "EPHEMERIS_TYPE": 0,
    "CLASSIFICATION_TYPE": "U",
    "NORAD_CAT_ID": 58294,
    "ELEMENT_SET_NO": 999,
    "REV_AT_EPOCH": 14543,
    "BSTAR": 0.0005997,
    "MEAN_MOTION_DOT": 0.00058454,
    "MEAN_MOTION_DDOT": 0
   }
  },
  {
   "norad": 58302,
   "name": "ICEYE-X35",
   "intl": "2023-174AY",
   "group": "sar",
   "gcat": {
    "class": "B",
    "category": "IMG-R",
    "owner": "ICEYE",
    "state": "FI"
   },
   "omm": {
    "OBJECT_NAME": "ICEYE-X35",
    "OBJECT_ID": "2023-174AY",
    "EPOCH": "2026-06-15T04:16:33.621888",
    "MEAN_MOTION": 15.5228507,
    "ECCENTRICITY": 0.000944,
    "INCLINATION": 97.3805,
    "RA_OF_ASC_NODE": 250.6943,
    "ARG_OF_PERICENTER": 199.1923,
    "MEAN_ANOMALY": 160.8975,
    "EPHEMERIS_TYPE": 0,
    "CLASSIFICATION_TYPE": "U",
    "NORAD_CAT_ID": 58302,
    "ELEMENT_SET_NO": 999,
    "REV_AT_EPOCH": 14503,
    "BSTAR": 0.00072285,
    "MEAN_MOTION_DOT": 0.00044088,
    "MEAN_MOTION_DDOT": 0
   }
  },
  {
   "norad": 59103,
   "name": "ICEYE-X36",
   "intl": "2024-043F",
   "group": "sar",
   "gcat": {
    "class": "B",
    "category": "IMG-R",
    "owner": "ICEUS",
    "state": "US"
   },
   "omm": {
    "OBJECT_NAME": "ICEYE-X36",
    "OBJECT_ID": "2024-043F",
    "EPOCH": "2026-06-15T04:36:43.759296",
    "MEAN_MOTION": 15.06852747,
    "ECCENTRICITY": 0.000518,
    "INCLINATION": 97.8369,
    "RA_OF_ASC_NODE": 304.2277,
    "ARG_OF_PERICENTER": 338.641,
    "MEAN_ANOMALY": 21.46,
    "EPHEMERIS_TYPE": 0,
    "CLASSIFICATION_TYPE": "U",
    "NORAD_CAT_ID": 59103,
    "ELEMENT_SET_NO": 999,
    "REV_AT_EPOCH": 12484,
    "BSTAR": 0.00025451,
    "MEAN_MOTION_DOT": 0.00003731,
    "MEAN_MOTION_DDOT": 0
   }
  },
  {
   "norad": 59102,
   "name": "ICEYE-X37",
   "intl": "2024-043E",
   "group": "sar",
   "gcat": {
    "class": "B",
    "category": "IMG-R",
    "owner": "ICEUS",
    "state": "US"
   },
   "omm": {
    "OBJECT_NAME": "ICEYE-X37",
    "OBJECT_ID": "2024-043E",
    "EPOCH": "2026-06-15T02:54:24.050016",
    "MEAN_MOTION": 15.06108335,
    "ECCENTRICITY": 0.0015475,
    "INCLINATION": 97.8312,
    "RA_OF_ASC_NODE": 303.0886,
    "ARG_OF_PERICENTER": 21.5075,
    "MEAN_ANOMALY": 338.6798,
    "EPHEMERIS_TYPE": 0,
    "CLASSIFICATION_TYPE": "U",
    "NORAD_CAT_ID": 59102,
    "ELEMENT_SET_NO": 999,
    "REV_AT_EPOCH": 12477,
    "BSTAR": 0.00026289,
    "MEAN_MOTION_DOT": 0.00003787,
    "MEAN_MOTION_DDOT": 0
   }
  },
  {
   "norad": 59100,
   "name": "ICEYE-X38",
   "intl": "2024-043C",
   "group": "sar",
   "gcat": {
    "class": "B",
    "category": "IMG-R",
    "owner": "ICEYE",
    "state": "FI"
   },
   "omm": {
    "OBJECT_NAME": "ICEYE-X38",
    "OBJECT_ID": "2024-043C",
    "EPOCH": "2026-06-15T04:47:07.625184",
    "MEAN_MOTION": 15.12841389,
    "ECCENTRICITY": 0.0003975,
    "INCLINATION": 97.8402,
    "RA_OF_ASC_NODE": 309.8911,
    "ARG_OF_PERICENTER": 93.9427,
    "MEAN_ANOMALY": 266.2258,
    "EPHEMERIS_TYPE": 0,
    "CLASSIFICATION_TYPE": "U",
    "NORAD_CAT_ID": 59100,
    "ELEMENT_SET_NO": 999,
    "REV_AT_EPOCH": 11137,
    "BSTAR": 0.00026725,
    "MEAN_MOTION_DOT": 0.00004628,
    "MEAN_MOTION_DDOT": 0
   }
  },
  {
   "norad": 60546,
   "name": "ICEYE-X39",
   "intl": "2024-149CG",
   "group": "sar",
   "gcat": {
    "class": "B",
    "category": "IMG-R",
    "owner": "FAB/ICEYE",
    "state": "BR"
   },
   "omm": {
    "OBJECT_NAME": "ICEYE-X39",
    "OBJECT_ID": "2024-149CG",
    "EPOCH": "2026-06-15T03:24:53.340192",
    "MEAN_MOTION": 14.99885943,
    "ECCENTRICITY": 0.0005046,
    "INCLINATION": 97.6766,
    "RA_OF_ASC_NODE": 243.1935,
    "ARG_OF_PERICENTER": 124.045,
    "MEAN_ANOMALY": 236.1253,
    "EPHEMERIS_TYPE": 0,
    "CLASSIFICATION_TYPE": "U",
    "NORAD_CAT_ID": 60546,
    "ELEMENT_SET_NO": 999,
    "REV_AT_EPOCH": 9981,
    "BSTAR": 0.00025758,
    "MEAN_MOTION_DOT": 0.00003135,
    "MEAN_MOTION_DDOT": 0
   }
  }
 ]
}
